{
  "type": "FeatureCollection",
  "features": [
    {
      "type": "Feature",
      "properties": {
        "norad_id": 66934,
        "name": "STARLINK-36153",
        "group": "last-30-days",
        "lat": 28.539399212959854,
        "lon": 2.8160714539492155,
        "alt_km": 405.72598793924317,
        "timestamp": "2025-12-27T03:58:42.933411+00:00",
        "meta_object_name": "STARLINK-36153",
        "meta_object_id": "2025-286K",
        "meta_epoch": "2025-12-26T20:00:01.999008",
        "meta_mean_motion": 15.53865516,
        "meta_eccentricity": 0.0001332,
        "meta_inclination": 53.1586,
        "meta_ra_of_asc_node": 340.3513,
        "meta_arg_of_pericenter": 99.4346,
        "meta_mean_anomaly": 237.616,
        "meta_ephemeris_type": 0,
        "meta_classification_type": "U",
        "meta_norad_cat_id": 66934,
        "meta_element_set_no": 999,
        "meta_rev_at_epoch": 425,
        "meta_bstar": -0.034218,
        "meta_mean_motion_dot": -0.02003912,
        "meta_mean_motion_ddot": 0,
        "tle_line1": "1 66934U 25286K   25360.83335647 -.02003912  00000+0 -34218-1 0  9993",
        "tle_line2": "2 66934  53.1586 340.3513 0001332  99.4346 237.6160 15.53865516  4252"
      },
      "geometry": {
        "type": "Point",
        "coordinates": [
          2.8160714539492155,
          28.539399212959854
        ]
      }
    },
    {
      "type": "Feature",
      "properties": {
        "norad_id": 66935,
        "name": "STARLINK-36127",
        "group": "last-30-days",
        "lat": 29.93431007477394,
        "lon": 4.323967247748393,
        "alt_km": 405.5644799788033,
        "timestamp": "2025-12-27T03:58:42.933421+00:00",
        "meta_object_name": "STARLINK-36127",
        "meta_object_id": "2025-286L",
        "meta_epoch": "2025-12-26T20:00:01.999008",
        "meta_mean_motion": 15.5386488,
        "meta_eccentricity": 0.0001282,
        "meta_inclination": 53.1588,
        "meta_ra_of_asc_node": 340.3459,
        "meta_arg_of_pericenter": 104.8333,
        "meta_mean_anomaly": 234.1383,
        "meta_ephemeris_type": 0,
        "meta_classification_type": "U",
        "meta_norad_cat_id": 66935,
        "meta_element_set_no": 999,
        "meta_rev_at_epoch": 425,
        "meta_bstar": -0.034292,
        "meta_mean_motion_dot": -0.02007691,
        "meta_mean_motion_ddot": 0,
        "tle_line1": "1 66935U 25286L   25360.83335647 -.02007691  00000+0 -34292-1 0  9994",
        "tle_line2": "2 66935  53.1588 340.3459 0001282 104.8333 234.1383 15.53864880  4257"
      },
      "geometry": {
        "type": "Point",
        "coordinates": [
          4.323967247748393,
          29.93431007477394
        ]
      }
    },
    {
      "type": "Feature",
      "properties": {
        "norad_id": 66936,
        "name": "STARLINK-36160",
        "group": "last-30-days",
        "lat": 31.309363367574647,
        "lon": 5.874803550285403,
        "alt_km": 405.36261987495527,
        "timestamp": "2025-12-27T03:58:42.933430+00:00",
        "meta_object_name": "STARLINK-36160",
        "meta_object_id": "2025-286M",
        "meta_epoch": "2025-12-26T20:00:01.999008",
        "meta_mean_motion": 15.53862958,
        "meta_eccentricity": 0.0001255,
        "meta_inclination": 53.1586,
        "meta_ra_of_asc_node": 340.3427,
        "meta_arg_of_pericenter": 108.6496,
        "meta_mean_anomaly": 232.2375,
        "meta_ephemeris_type": 0,
        "meta_classification_type": "U",
        "meta_norad_cat_id": 66936,
        "meta_element_set_no": 999,
        "meta_rev_at_epoch": 425,
        "meta_bstar": -0.034196,
        "meta_mean_motion_dot": -0.02002512,
        "meta_mean_motion_ddot": 0,
        "tle_line1": "1 66936U 25286M   25360.83335647 -.02002512  00000+0 -34196-1 0  9995",
        "tle_line2": "2 66936  53.1586 340.3427 0001255 108.6496 232.2375 15.53862958  4257"
      },
      "geometry": {
        "type": "Point",
        "coordinates": [
          5.874803550285403,
          31.309363367574647
        ]
      }
    },
    {
      "type": "Feature",
      "properties": {
        "norad_id": 66937,
        "name": "STARLINK-36165",
        "group": "last-30-days",
        "lat": 32.66691886258117,
        "lon": 7.4718476097231035,
        "alt_km": 405.14837364357754,
        "timestamp": "2025-12-27T03:58:42.933441+00:00",
        "meta_object_name": "STARLINK-36165",
        "meta_object_id": "2025-286N",
        "meta_epoch": "2025-12-26T20:00:01.999008",
        "meta_mean_motion": 15.53868904,
        "meta_eccentricity": 0.0001223,
        "meta_inclination": 53.1589,
        "meta_ra_of_asc_node": 340.3384,
        "meta_arg_of_pericenter": 110.797,
        "meta_mean_anomaly": 232.0041,
        "meta_ephemeris_type": 0,
        "meta_classification_type": "U",
        "meta_norad_cat_id": 66937,
        "meta_element_set_no": 999,
        "meta_rev_at_epoch": 425,
        "meta_bstar": -0.034327,
        "meta_mean_motion_dot": -0.02009748,
        "meta_mean_motion_ddot": 0,
        "tle_line1": "1 66937U 25286N   25360.83335647 -.02009748  00000+0 -34327-1 0  9990",
        "tle_line2": "2 66937  53.1589 340.3384 0001223 110.7970 232.0041 15.53868904  4254"
      },
      "geometry": {
        "type": "Point",
        "coordinates": [
          7.4718476097231035,
          32.66691886258117
        ]
      }
    },
    {
      "type": "Feature",
      "properties": {
        "norad_id": 66938,
        "name": "STARLINK-36155",
        "group": "last-30-days",
        "lat": 34.00346529279771,
        "lon": 9.117674051473985,
        "alt_km": 404.8648513457165,
        "timestamp": "2025-12-27T03:58:42.933452+00:00",
        "meta_object_name": "STARLINK-36155",
        "meta_object_id": "2025-286P",
        "meta_epoch": "2025-12-26T20:00:01.999008",
        "meta_mean_motion": 15.53862987,
        "meta_eccentricity": 0.0001164,
        "meta_inclination": 53.159,
        "meta_ra_of_asc_node": 340.3337,
        "meta_arg_of_pericenter": 105.6593,
        "meta_mean_anomaly": 239.062,
        "meta_ephemeris_type": 0,
        "meta_classification_type": "U",
        "meta_norad_cat_id": 66938,
        "meta_element_set_no": 999,
        "meta_rev_at_epoch": 425,
        "meta_bstar": -0.034193,
        "meta_mean_motion_dot": -0.02002326,
        "meta_mean_motion_ddot": 0,
        "tle_line1": "1 66938U 25286P   25360.83335647 -.02002326  00000+0 -34193-1 0  9997",
        "tle_line2": "2 66938  53.1590 340.3337 0001164 105.6593 239.0620 15.53862987  4258"
      },
      "geometry": {
        "type": "Point",
        "coordinates": [
          9.117674051473985,
          34.00346529279771
        ]
      }
    },
    {
      "type": "Feature",
      "properties": {
        "norad_id": 66939,
        "name": "STARLINK-36154",
        "group": "last-30-days",
        "lat": 36.60368436591821,
        "lon": 12.566973682649602,
        "alt_km": 404.3925017720994,
        "timestamp": "2025-12-27T03:58:42.933463+00:00",
        "meta_object_name": "STARLINK-36154",
        "meta_object_id": "2025-286Q",
        "meta_epoch": "2025-12-26T20:00:01.999008",
        "meta_mean_motion": 15.53865569,
        "meta_eccentricity": 0.0001251,
        "meta_inclination": 53.1593,
        "meta_ra_of_asc_node": 340.3256,
        "meta_arg_of_pericenter": 107.7145,
        "meta_mean_anomaly": 240.8376,
        "meta_ephemeris_type": 0,
        "meta_classification_type": "U",
        "meta_norad_cat_id": 66939,
        "meta_element_set_no": 999,
        "meta_rev_at_epoch": 425,
        "meta_bstar": -0.034256,
        "meta_mean_motion_dot": -0.02005833,
        "meta_mean_motion_ddot": 0,
        "tle_line1": "1 66939U 25286Q   25360.83335647 -.02005833  00000+0 -34256-1 0  9994",
        "tle_line2": "2 66939  53.1593 340.3256 0001251 107.7145 240.8376 15.53865569  4252"
      },
      "geometry": {
        "type": "Point",
        "coordinates": [
          12.566973682649602,
          36.60368436591821
        ]
      }
    },
    {
      "type": "Feature",
      "properties": {
        "norad_id": 66940,
        "name": "STARLINK-36121",
        "group": "last-30-days",
        "lat": 37.86720260638499,
        "lon": 14.38241650617442,
        "alt_km": 404.0443670887971,
        "timestamp": "2025-12-27T03:58:42.933473+00:00",
        "meta_object_name": "STARLINK-36121",
        "meta_object_id": "2025-286R",
        "meta_epoch": "2025-12-26T20:00:01.999008",
        "meta_mean_motion": 15.53865913,
        "meta_eccentricity": 0.0001227,
        "meta_inclination": 53.1594,
        "meta_ra_of_asc_node": 340.322,
        "meta_arg_of_pericenter": 95.0935,
        "meta_mean_anomaly": 255.3751,
        "meta_ephemeris_type": 0,
        "meta_classification_type": "U",
        "meta_norad_cat_id": 66940,
        "meta_element_set_no": 999,
        "meta_rev_at_epoch": 425,
        "meta_bstar": -0.034247,
        "meta_mean_motion_dot": -0.02005409,
        "meta_mean_motion_ddot": 0,
        "tle_line1": "1 66940U 25286R   25360.83335647 -.02005409  00000+0 -34247-1 0  9995",
        "tle_line2": "2 66940  53.1594 340.3220 0001227  95.0935 255.3751 15.53865913  4256"
      },
      "geometry": {
        "type": "Point",
        "coordinates": [
          14.38241650617442,
          37.86720260638499
        ]
      }
    }
  ]
}